{"fetched_at":"2026-03-29T16:36:15Z","count":15609,"tles":[{"name":"COSMOS 2582","line1":"1 62903U 25026B   26087.69861344  .00001302  00000+0  11754-3 0  9995","line2":"2 62903  81.9973 156.6111 0009165 329.6172  30.4515 14.94795972 62183","category":"Other"}]}